0 COSMOS 970 DEB *
1 20327U 77121BY  13282.44249078  .00006625  00000-0  70308-3 0  9244
2 20327 065.8124 300.1469 0520922 081.0813 349.4539 14.23129985 86629
0 COSMOS 970 DEB *
1 20327U 77121BY  13284.05246831  .00005857  00000-0  62348-3 0  9259
2 20327 065.8121 295.8105 0520895 080.2140 317.8519 14.23144263 86854
0 COSMOS 970 DEB *
1 20327U 77121BY  13286.46297074  .00005564  00000-0  59268-3 0  9264
2 20327 065.8115 289.3179 0520908 078.9109 067.7546 14.23165631 87191
0 COSMOS 970 DEB *
1 20327U 77121BY  13287.98620788  .00010197  00000-0  10713-2 0  9274
2 20327 065.8111 285.2148 0520839 078.0917 311.9699 14.23186629 87417
0 COSMOS 970 DEB *
1 20327U 77121BY  13291.37662141  .00008705  00000-0  91746-3 0  9280
2 20327 065.8115 276.0793 0520509 076.2298 043.0667 14.23238930 87894
0 COSMOS 970 DEB *
1 20327U 77121BY  13293.40673733  .00008679  00000-0  91353-3 0  9290
2 20327 065.8125 270.6095 0520589 075.1376 004.8139 14.23266587 88184
0 COSMOS 970 DEB *
1 20327U 77121BY  13295.92804512  .00009818  00000-0  10301-2 0  9301
2 20327 065.8125 263.8166 0520543 073.7722 323.5915 14.23304199 88541
